NORAD_CAT_ID,OBJECT_NAME,OBJECT_TYPE,EPOCH,MEAN_MOTION,ECCENTRICITY,INCLINATION,RA_OF_ASC_NODE,ARG_OF_PERICENTER,MEAN_ANOMALY,BSTAR,MEAN_MOTION_DOT,MEAN_MOTION_DDOT,TLE_LINE0,TLE_LINE1,TLE_LINE2,SEMIMAJOR_AXIS,PERIOD,APOGEE,PERIGEE,DECAYED
52861.0,STARLINK-4112,PAYLOAD,2023-03-25 00:27:58,15.08837167,0.0002022,53.2161,195.4472,79.8781,280.2439,-0.0012845,-0.00020672,0.0,0 STARLINK-4112,1 52861U 22062AH  23084.01942609 -.00020672  00000-0 -12845-2 0  9993,2 52861  53.2161 195.4472 0002022  79.8781 280.2439 15.08837167 43270,6917.889,95.438,541.153,538.355,0.0
52861.0,STARLINK-4112,PAYLOAD,2023-03-25 11:35:43,15.0870801,0.0001268,53.2157,193.3662,97.8196,262.294,-0.00097233,-0.00015673,0.0,0 STARLINK-4112,1 52861U 22062AH  23084.48314635 -.00015673  00000-0 -97233-3 0  9996,2 52861  53.2157 193.3662 0001268  97.8196 262.2940 15.08708010 43343,6918.284,95.446,541.026,539.272,0.0
52861.0,STARLINK-4112,PAYLOAD,2023-03-25 16:21:54,15.08728857,0.0001485,53.2146,192.4733,86.328,273.7882,-0.0018138,-0.00028951,0.0,0 STARLINK-4112,1 52861U 22062AH  23084.68187870 -.00028951  00000-0 -18138-2 0  9996,2 52861  53.2146 192.4733 0001485  86.3280 273.7882 15.08728857 43374,6918.22,95.445,541.112,539.058,0.0
52861.0,STARLINK-4112,PAYLOAD,2023-03-26 00:18:51,15.08767446,0.0001162,53.2162,190.987,79.4897,280.6226,0.0025998,0.00041248,0.0,0 STARLINK-4112,1 52861U 22062AH  23085.01309575  .00041248  00000-0  25998-2 0  9996,2 52861  53.2162 190.9870 0001162  79.4897 280.6226 15.08767446 43428,6918.102,95.442,540.771,539.163,0.0
52861.0,STARLINK-4112,PAYLOAD,2023-03-26 13:01:56,15.08883009,0.0001532,53.2154,188.6083,65.6084,294.5068,0.0030299,0.00048321,0.0,0 STARLINK-4112,1 52861U 22062AH  23085.54300939  .00048321  00000-0  30299-2 0  9998,2 52861  53.2154 188.6083 0001532  65.6084 294.5068 15.08883009 43506,6917.749,95.435,540.674,538.554,0.0
52861.0,STARLINK-4112,PAYLOAD,2023-03-27 00:09:37,15.08883715,0.0001887,53.214,186.5291,58.3544,301.7632,0.0011165,0.00017547,0.0,0 STARLINK-4112,1 52861U 22062AH  23086.00667865  .00017547  00000-0  11165-2 0  9991,2 52861  53.2140 186.5291 0001887  58.3544 301.7632 15.08883715 43571,6917.747,95.435,540.917,538.306,0.0
52861.0,STARLINK-4112,PAYLOAD,2023-03-27 12:52:41,15.08871003,0.0001355,53.2156,184.1462,77.8423,282.2721,0.0015209,0.00024021,0.0,0 STARLINK-4112,1 52861U 22062AH  23086.53658946  .00024021  00000-0  15209-2 0  9997,2 52861  53.2156 184.1462 0001355  77.8423 282.2721 15.08871003 43652,6917.786,95.436,540.588,538.713,0.0
52861.0,STARLINK-4112,PAYLOAD,2023-03-27 17:38:50,15.08885713,0.0001312,53.2154,183.2536,81.0492,279.0649,0.0018723,0.00029673,0.0,0 STARLINK-4112,1 52861U 22062AH  23086.73530347  .00029673  00000-0  18723-2 0  9995,2 52861  53.2154 183.2536 0001312  81.0492 279.0649 15.08885713 43193,6917.741,95.435,540.513,538.698,0.0
52861.0,STARLINK-4112,PAYLOAD,2023-03-28 00:00:22,15.08865754,8.31e-05,53.215,182.068,53.7421,306.3648,0.00091959,0.00014388,0.0,0 STARLINK-4112,1 52861U 22062AH  23087.00026262  .00014388  00000-0  91959-3 0  9992,2 52861  53.2150 182.0680 0000831  53.7421 306.3648 15.08865754 43724,6917.802,95.436,540.242,539.092,0.0
52861.0,STARLINK-4112,PAYLOAD,2023-03-28 12:43:27,15.08860668,0.0001512,53.2144,179.6892,69.4147,290.7007,0.00055199,8.513e-05,0.0,0 STARLINK-4112,1 52861U 22062AH  23087.53017997  .00008513  00000-0  55199-3 0  9994,2 52861  53.2144 179.6892 0001512  69.4147 290.7007 15.08860668 43803,6917.817,95.436,540.728,538.636,0.0
52861.0,STARLINK-4112,PAYLOAD,2023-03-28 17:29:36,15.08881274,0.0001356,53.2148,178.7906,116.8575,243.2556,0.0011824,0.00018601,0.0,0 STARLINK-4112,1 52861U 22062AH  23087.72889100  .00018601  00000-0  11824-2 0  9993,2 52861  53.2148 178.7906 0001356 116.8575 243.2556 15.08881274 43832,6917.754,95.435,540.557,538.681,0.0
52861.0,STARLINK-4112,PAYLOAD,2023-03-29 06:12:41,15.08846817,0.0001046,53.2155,176.4148,124.8015,235.3076,0.0011279,0.00017711,0.0,0 STARLINK-4112,1 52861U 22062AH  23088.25881728  .00017711  00000-0  11279-2 0  9995,2 52861  53.2155 176.4148 0001046 124.8015 235.3076 15.08846817 43919,6917.86,95.437,540.448,539.001,0.0
52861.0,STARLINK-4112,PAYLOAD,2023-03-29 10:58:51,15.08853213,0.0001055,53.2153,175.5222,110.2606,249.8499,0.0018141,0.00028712,0.0,0 STARLINK-4112,1 52861U 22062AH  23088.45753677  .00028712  00000-0  18141-2 0  9996,2 52861  53.2153 175.5222 0001055 110.2606 249.8499 15.08853213 43451,6917.84,95.437,540.435,538.975,0.0
52861.0,STARLINK-4112,PAYLOAD,2023-03-29 17:20:23,15.08866203,0.0001401,53.2155,174.3314,117.5829,242.5305,0.0019871,0.00031501,0.0,0 STARLINK-4112,1 52861U 22062AH  23088.72249357  .00031501  00000-0  19871-2 0  9992,2 52861  53.2155 174.3314 0001401 117.5829 242.5305 15.08866203 43497,6917.8,95.436,540.634,538.696,0.0
52861.0,STARLINK-4112,PAYLOAD,2023-03-29 22:06:32,15.08842573,0.0001089,53.216,173.4425,164.0375,196.0651,0.00027199,4.044e-05,0.0,0 STARLINK-4112,1 52861U 22062AH  23088.92121354  .00004044  00000-0  27199-3 0  9995,2 52861  53.2160 173.4425 0001089 164.0375 196.0651 15.08842573 44011,6917.873,95.437,540.491,538.984,0.0
52861.0,STARLINK-4112,PAYLOAD,2023-03-30 06:03:29,15.08825926,0.0001781,53.2164,171.954,121.3271,238.7895,0.00083604,0.00013038,0.0,0 STARLINK-4112,1 52861U 22062AH  23089.25242144  .00013038  00000-0  83604-3 0  9999,2 52861  53.2164 171.9540 0001781 121.3271 238.7895 15.08825926 44068,6917.923,95.438,541.02,538.556,0.0
52861.0,STARLINK-4112,PAYLOAD,2023-03-30 12:25:01,15.08849045,0.0001498,53.2151,170.7677,117.2434,242.8711,0.00085238,0.00013307,0.0,0 STARLINK-4112,1 52861U 22062AH  23089.51737931  .00013307  00000-0  85238-3 0  9995,2 52861  53.2151 170.7677 0001498 117.2434 242.8711 15.08849045 44108,6917.853,95.437,540.754,538.681,0.0
52861.0,STARLINK-4112,PAYLOAD,2023-03-31 04:18:53,15.08852158,0.0001739,53.2154,167.7907,80.8809,279.238,0.0016718,0.00026428,0.0,0 STARLINK-4112,1 52861U 22062AH  23090.17978465  .00026428  00000-0  16718-2 0  9992,2 52861  53.2154 167.7907 0001739  80.8809 279.2380 15.08852158 44208,6917.843,95.437,540.911,538.505,0.0
52861.0,STARLINK-4112,PAYLOAD,2023-03-31 21:48:07,15.08851633,0.0001857,53.2158,164.5221,67.7559,292.363,0.001225,0.00019268,0.0,0 STARLINK-4112,1 52861U 22062AH  23090.90842506  .00019268  00000-0  12250-2 0  9990,2 52861  53.2158 164.5221 0001857  67.7559 292.3630 15.08851633 44316,6917.845,95.437,540.994,538.425,0.0
52861.0,STARLINK-4112,PAYLOAD,2023-04-01 12:06:36,15.08838824,0.0001217,53.2147,161.8439,56.91,303.2009,0.0017839,0.00028216,0.0,0 STARLINK-4112,1 52861U 22062AH  23091.50458900  .00028216  00000-0  17839-2 0  9999,2 52861  53.2147 161.8439 0001217  56.9100 303.2009 15.08838824 43911,6917.884,95.438,540.591,538.907,0.0
52861.0,STARLINK-4112,PAYLOAD,2023-04-01 15:17:22,15.08846768,0.00013,53.2146,161.2492,56.9582,303.1535,0.0023125,0.00036714,0.0,0 STARLINK-4112,1 52861U 22062AH  23091.63706961  .00036714  00000-0  23125-2 0  9993,2 52861  53.2146 161.2492 0001300  56.9582 303.1535 15.08846768 44426,6917.86,95.437,540.624,538.825,0.0
52861.0,STARLINK-4112,PAYLOAD,2023-04-01 21:38:55,15.08844469,3.97e-05,53.2148,160.06,44.7208,315.3816,0.0010561,0.00016562,0.0,0 STARLINK-4112,1 52861U 22062AH  23091.90202712  .00016562  00000-0  10561-2 0  9997,2 52861  53.2148 160.0600 0000397  44.7208 315.3816 15.08844469 43973,6917.867,95.437,540.006,539.457,0.0
52861.0,STARLINK-4112,PAYLOAD,2023-04-02 13:32:46,15.08860251,0.0001266,53.2146,157.0863,61.4312,298.6808,0.0019581,0.0003103,0.0,0 STARLINK-4112,1 52861U 22062AH  23092.56443010  .00031030  00000-0  19581-2 0  9996,2 52861  53.2146 157.0863 0001266  61.4312 298.6808 15.08860251 44079,6917.818,95.436,540.559,538.808,0.0
52861.0,STARLINK-4112,PAYLOAD,2023-04-02 21:29:42,15.08842227,3.49e-05,53.2144,155.6017,21.9626,338.1381,-2.8905e-05,-7.47e-06,0.0,0 STARLINK-4112,1 52861U 22062AH  23092.89562568 -.00000747  00000-0 -28905-4 0  9997,2 52861  53.2144 155.6017 0000349  21.9626 338.1381 15.08842227 44127,6917.874,95.437,539.98,539.497,0.0
52861.0,STARLINK-4112,PAYLOAD,2023-04-03 10:12:47,15.0886119,0.0001035,53.2141,153.2207,70.9857,289.1247,0.0018965,0.00030041,0.0,0 STARLINK-4112,1 52861U 22062AH  23093.42554784  .00030041  00000-0  18965-2 0  9999,2 52861  53.2141 153.2207 0001035  70.9857 289.1247 15.08861190 44690,6917.816,95.436,540.397,538.965,0.0
52861.0,STARLINK-4112,PAYLOAD,2023-04-03 21:20:28,15.08876786,0.0001146,53.2133,151.1407,60.7342,299.3765,0.0017848,0.0002826,0.0,0 STARLINK-4112,1 52861U 22062AH  23093.88922164  .00028260  00000-0  17848-2 0  9999,2 52861  53.2133 151.1407 0001146  60.7342 299.3765 15.08876786 44278,6917.768,95.435,540.426,538.84,0.0
52861.0,STARLINK-4112,PAYLOAD,2023-04-04 06:52:47,15.08847077,0.0001301,53.2143,149.3557,98.8921,261.2218,0.0013388,0.00021087,0.0,0 STARLINK-4112,1 52861U 22062AH  23094.28666488  .00021087  00000-0  13388-2 0  9993,2 52861  53.2143 149.3557 0001301  98.8921 261.2218 15.08847077 44825,6917.859,95.437,540.624,538.824,0.0
52861.0,STARLINK-4112,PAYLOAD,2023-04-04 10:03:34,15.08839419,0.000102,53.2144,148.7612,98.0999,262.0109,0.0016101,0.00025429,0.0,0 STARLINK-4112,1 52861U 22062AH  23094.41914577  .00025429  00000-0  16101-2 0  9993,2 52861  53.2144 148.7612 0001020  98.0999 262.0109 15.08839419 44353,6917.882,95.438,540.453,539.042,0.0
52861.0,STARLINK-4112,PAYLOAD,2023-04-04 14:49:43,15.08835199,0.0001162,53.2142,147.8698,84.424,275.6885,0.00099897,0.00015644,0.0,0 STARLINK-4112,1 52861U 22062AH  23094.61786810  .00015644  00000-0  99897-3 0  9994,2 52861  53.2142 147.8698 0001162  84.4240 275.6885 15.08835199 44879,6917.895,95.438,540.564,538.956,0.0
52861.0,STARLINK-4112,PAYLOAD,2023-04-05 09:54:21,15.08840692,0.000142,53.2147,144.3011,90.0499,270.0656,0.00020539,2.982e-05,0.0,0 STARLINK-4112,1 52861U 22062AH  23095.41275106  .00002982  00000-0  20539-3 0  9992,2 52861  53.2147 144.3011 0001420  90.0499 270.0656 15.08840692 44500,6917.878,95.438,540.726,538.761,0.0
